ORBCOMM FM33 [-]        
1 25983U 99065D   24042.74465635  .00002385  00000+0  83929-3 0  9999
2 25983  45.0284 170.2678 0008435 119.3375  38.6762 14.37288345265293
ORBCOMM FM34 [-]        
1 25986U 99065G   24042.67788732  .00001734  00000+0  65573-3 0  9992
2 25986  45.0386 257.4574 0003891  42.2926 317.8221 14.34762156264250
ORBCOMM FM38 [-]        
1 33060U 08031A   24042.61809553  .00003893  00000+0  57639-3 0  9998
2 33060  48.4406 129.6454 0004578  95.0943 265.0493 14.76914460841975
ORBCOMM FM29 [-]        
1 33062U 08031C   24042.65889785  .00004358  00000+0  64692-3 0  9993
2 33062  48.4392 143.8910 0005593  76.9314  69.5955 14.76566564841400
ORBCOMM FM39 [-]        
1 33063U 08031D   24042.53925899  .00003824  00000+0  58353-3 0  9992
2 33063  48.4400 164.3288 0006690  50.8870 309.2637 14.75645117841091
