<?xml version="1.0" encoding="UTF-8"?>
<ndm xmlns:xsi="http://www.w3.org/2001/XMLSchema-instance" xsi:noNamespaceSchemaLocation="https://sanaregistry.org/r/ndmxml_unqualified/ndmxml-2.0.0-master-2.0.xsd">
<omm id="CCSDS_OMM_VERS" version="2.0">
<header><CREATION_DATE/><ORIGINATOR/></header><body><segment><metadata><OBJECT_NAME>ORBCOMM FM33 [-]</OBJECT_NAME><OBJECT_ID>1999-065D</OBJECT_ID><CENTER_NAME>EARTH</CENTER_NAME><REF_FRAME>TEME</REF_FRAME><TIME_SYSTEM>UTC</TIME_SYSTEM><MEAN_ELEMENT_THEORY>SGP4</MEAN_ELEMENT_THEORY></metadata><data><meanElements><EPOCH>2024-02-11T17:52:18.308640</EPOCH><MEAN_MOTION>14.37288345</MEAN_MOTION><ECCENTRICITY>.0008435</ECCENTRICITY><INCLINATION>45.0284</INCLINATION><RA_OF_ASC_NODE>170.2678</RA_OF_ASC_NODE><ARG_OF_PERICENTER>119.3375</ARG_OF_PERICENTER><MEAN_ANOMALY>38.6762</MEAN_ANOMALY></meanElements><tleParameters><EPHEMERIS_TYPE>0</EPHEMERIS_TYPE><CLASSIFICATION_TYPE>U</CLASSIFICATION_TYPE><NORAD_CAT_ID>25983</NORAD_CAT_ID><ELEMENT_SET_NO>999</ELEMENT_SET_NO><REV_AT_EPOCH>26529</REV_AT_EPOCH><BSTAR>.83929E-3</BSTAR><MEAN_MOTION_DOT>.2385E-4</MEAN_MOTION_DOT><MEAN_MOTION_DDOT>0</MEAN_MOTION_DDOT></tleParameters></data></segment></body></omm>
<omm id="CCSDS_OMM_VERS" version="2.0">
<header><CREATION_DATE/><ORIGINATOR/></header><body><segment><metadata><OBJECT_NAME>ORBCOMM FM34 [-]</OBJECT_NAME><OBJECT_ID>1999-065G</OBJECT_ID><CENTER_NAME>EARTH</CENTER_NAME><REF_FRAME>TEME</REF_FRAME><TIME_SYSTEM>UTC</TIME_SYSTEM><MEAN_ELEMENT_THEORY>SGP4</MEAN_ELEMENT_THEORY></metadata><data><meanElements><EPOCH>2024-02-11T16:16:09.464448</EPOCH><MEAN_MOTION>14.34762156</MEAN_MOTION><ECCENTRICITY>.0003891</ECCENTRICITY><INCLINATION>45.0386</INCLINATION><RA_OF_ASC_NODE>257.4574</RA_OF_ASC_NODE><ARG_OF_PERICENTER>42.2926</ARG_OF_PERICENTER><MEAN_ANOMALY>317.8221</MEAN_ANOMALY></meanElements><tleParameters><EPHEMERIS_TYPE>0</EPHEMERIS_TYPE><CLASSIFICATION_TYPE>U</CLASSIFICATION_TYPE><NORAD_CAT_ID>25986</NORAD_CAT_ID><ELEMENT_SET_NO>999</ELEMENT_SET_NO><REV_AT_EPOCH>26425</REV_AT_EPOCH><BSTAR>.65573E-3</BSTAR><MEAN_MOTION_DOT>.1734E-4</MEAN_MOTION_DOT><MEAN_MOTION_DDOT>0</MEAN_MOTION_DDOT></tleParameters></data></segment></body></omm>
<omm id="CCSDS_OMM_VERS" version="2.0">
<header><CREATION_DATE/><ORIGINATOR/></header><body><segment><metadata><OBJECT_NAME>ORBCOMM FM38 [-]</OBJECT_NAME><OBJECT_ID>2008-031A</OBJECT_ID><CENTER_NAME>EARTH</CENTER_NAME><REF_FRAME>TEME</REF_FRAME><TIME_SYSTEM>UTC</TIME_SYSTEM><MEAN_ELEMENT_THEORY>SGP4</MEAN_ELEMENT_THEORY></metadata><data><meanElements><EPOCH>2024-02-11T14:50:03.453792</EPOCH><MEAN_MOTION>14.76914460</MEAN_MOTION><ECCENTRICITY>.0004578</ECCENTRICITY><INCLINATION>48.4406</INCLINATION><RA_OF_ASC_NODE>129.6454</RA_OF_ASC_NODE><ARG_OF_PERICENTER>95.0943</ARG_OF_PERICENTER><MEAN_ANOMALY>265.0493</MEAN_ANOMALY></meanElements><tleParameters><EPHEMERIS_TYPE>0</EPHEMERIS_TYPE><CLASSIFICATION_TYPE>U</CLASSIFICATION_TYPE><NORAD_CAT_ID>33060</NORAD_CAT_ID><ELEMENT_SET_NO>999</ELEMENT_SET_NO><REV_AT_EPOCH>84197</REV_AT_EPOCH><BSTAR>.57639E-3</BSTAR><MEAN_MOTION_DOT>.3893E-4</MEAN_MOTION_DOT><MEAN_MOTION_DDOT>0</MEAN_MOTION_DDOT></tleParameters></data></segment></body></omm>
<omm id="CCSDS_OMM_VERS" version="2.0">
<header><CREATION_DATE/><ORIGINATOR/></header><body><segment><metadata><OBJECT_NAME>ORBCOMM FM29 [-]</OBJECT_NAME><OBJECT_ID>2008-031C</OBJECT_ID><CENTER_NAME>EARTH</CENTER_NAME><REF_FRAME>TEME</REF_FRAME><TIME_SYSTEM>UTC</TIME_SYSTEM><MEAN_ELEMENT_THEORY>SGP4</MEAN_ELEMENT_THEORY></metadata><data><meanElements><EPOCH>2024-02-11T15:48:48.774240</EPOCH><MEAN_MOTION>14.76566564</MEAN_MOTION><ECCENTRICITY>.0005593</ECCENTRICITY><INCLINATION>48.4392</INCLINATION><RA_OF_ASC_NODE>143.8910</RA_OF_ASC_NODE><ARG_OF_PERICENTER>76.9314</ARG_OF_PERICENTER><MEAN_ANOMALY>69.5955</MEAN_ANOMALY></meanElements><tleParameters><EPHEMERIS_TYPE>0</EPHEMERIS_TYPE><CLASSIFICATION_TYPE>U</CLASSIFICATION_TYPE><NORAD_CAT_ID>33062</NORAD_CAT_ID><ELEMENT_SET_NO>999</ELEMENT_SET_NO><REV_AT_EPOCH>84140</REV_AT_EPOCH><BSTAR>.64692E-3</BSTAR><MEAN_MOTION_DOT>.4358E-4</MEAN_MOTION_DOT><MEAN_MOTION_DDOT>0</MEAN_MOTION_DDOT></tleParameters></data></segment></body></omm>
<omm id="CCSDS_OMM_VERS" version="2.0">
<header><CREATION_DATE/><ORIGINATOR/></header><body><segment><metadata><OBJECT_NAME>ORBCOMM FM39 [-]</OBJECT_NAME><OBJECT_ID>2008-031D</OBJECT_ID><CENTER_NAME>EARTH</CENTER_NAME><REF_FRAME>TEME</REF_FRAME><TIME_SYSTEM>UTC</TIME_SYSTEM><MEAN_ELEMENT_THEORY>SGP4</MEAN_ELEMENT_THEORY></metadata><data><meanElements><EPOCH>2024-02-11T12:56:31.976736</EPOCH><MEAN_MOTION>14.75645117</MEAN_MOTION><ECCENTRICITY>.000669</ECCENTRICITY><INCLINATION>48.4400</INCLINATION><RA_OF_ASC_NODE>164.3288</RA_OF_ASC_NODE><ARG_OF_PERICENTER>50.8870</ARG_OF_PERICENTER><MEAN_ANOMALY>309.2637</MEAN_ANOMALY></meanElements><tleParameters><EPHEMERIS_TYPE>0</EPHEMERIS_TYPE><CLASSIFICATION_TYPE>U</CLASSIFICATION_TYPE><NORAD_CAT_ID>33063</NORAD_CAT_ID><ELEMENT_SET_NO>999</ELEMENT_SET_NO><REV_AT_EPOCH>84109</REV_AT_EPOCH><BSTAR>.58353E-3</BSTAR><MEAN_MOTION_DOT>.3824E-4</MEAN_MOTION_DOT><MEAN_MOTION_DDOT>0</MEAN_MOTION_DDOT></tleParameters></data></segment></body></omm>

</ndm>
